[{"OBJECT_NAME":"STARLINK-1363","OBJECT_ID":"2020-025AP","EPOCH":"2026-03-09T04:33:57.485088","MEAN_MOTION":15.76582535,"ECCENTRICITY":0.00083079,"INCLINATION":53.043,"RA_OF_ASC_NODE":40.2129,"ARG_OF_PERICENTER":56.0535,"MEAN_ANOMALY":304.1273,"EPHEMERIS_TYPE":0,"CLASSIFICATION_TYPE":"U","NORAD_CAT_ID":45568,"ELEMENT_SET_NO":999,"REV_AT_EPOCH":32597,"BSTAR":0.00073874012,"MEAN_MOTION_DOT":0.00121445,"MEAN_MOTION_DDOT":0},{"OBJECT_NAME":"TRANSPORTER-12 OBJECT F","OBJECT_ID":"2025-009F","EPOCH":"2026-03-09T18:25:14.947104","MEAN_MOTION":15.73813521,"ECCENTRICITY":0.00060767,"INCLINATION":97.386,"RA_OF_ASC_NODE":159.0379,"ARG_OF_PERICENTER":265.786,"MEAN_ANOMALY":94.271,"EPHEMERIS_TYPE":0,"CLASSIFICATION_TYPE":"U","NORAD_CAT_ID":62614,"ELEMENT_SET_NO":999,"REV_AT_EPOCH":6425,"BSTAR":0.0022214492,"MEAN_MOTION_DOT":0.00324599,"MEAN_MOTION_DDOT":0}]
